OBJECT_NAME,OBJECT_ID,EPOCH,MEAN_MOTION,ECCENTRICITY,INCLINATION,RA_OF_ASC_NODE,ARG_OF_PERICENTER,MEAN_ANOMALY,EPHEMERIS_TYPE,CLASSIFICATION_TYPE,NORAD_CAT_ID,ELEMENT_SET_NO,REV_AT_EPOCH,BSTAR,MEAN_MOTION_DOT,MEAN_MOTION_DDOT
NUSAT-49 (KLARA DAN VON NEUMANN),2024-149AJ,2026-05-18T04:21:40.691808,15.29951726,.00034313,97.3767,219.6722,74.5508,285.6112,0,U,60500,999,9754,.19361367E-3,.5538E-4,0
FLOCK 4BE-11,2024-149AK,2026-05-18T12:50:29.085504,15.41920319,.00039334,97.3702,222.3676,45.9331,314.2239,0,U,60501,999,9778,.24250028E-3,.10226E-3,0
YAM-7,2024-149AN,2026-05-18T15:46:19.494912,15.31371442,.0004514,97.3785,219.0363,58.9158,301.2526,0,U,60504,999,9753,.15504459E-3,.4621E-4,0
FLOCK 4BE-24,2024-149AP,2026-05-18T17:12:05.656032,15.41882498,.00040828,97.3717,222.7992,54.2893,305.8733,0,U,60505,999,9782,.2856902E-3,.12051E-3,0
LUR-1,2024-149AQ,2026-05-18T05:19:57.036288,15.29677113,.00053776,97.3742,217.2766,65.0294,295.1504,0,U,60506,999,9739,.16086381E-3,.455E-4,0
TANAGER-1,2024-149AR,2026-05-18T19:35:26.659392,15.44609608,.00057937,97.3135,232.9876,57.0104,303.1701,0,U,60507,999,9850,.15426793E-3,.7091E-4,0
EAGLEEYE,2024-149AS,2026-05-18T11:58:21.211104,15.65778275,.00013677,97.3735,230.3208,19.0480,341.0830,0,U,60508,999,9828,.50103076E-3,.50769E-3,0
FLOCK 4BE-29,2024-149AT,2026-05-18T11:45:34.915680,15.43091273,.00035415,97.3810,223.9398,68.7351,291.4275,0,U,60509,999,9783,.24088582E-3,.10564E-3,0
TRANSPORTER-11 OBJECT AU,2024-149AU,2026-05-18T11:43:56.537184,15.39326077,.00043733,97.3731,221.9926,55.8343,304.3317,0,U,60510,999,9774,.22447391E-3,.8679E-4,0
FLOCK 4BE-2,2024-149AV,2026-05-18T12:16:08.067072,15.49450256,.00031192,97.3824,225.0378,64.7483,295.4092,0,U,60511,999,9790,.57418568E-3,.31554E-3,0
FLOCK 4BE-13,2024-149AW,2026-05-18T11:44:32.569440,15.41025883,.00042398,97.3722,222.6119,36.7784,323.3753,0,U,60512,999,9779,.20854882E-3,.8523E-4,0
FLOCK 4BE-27,2024-149AX,2026-05-18T10:51:09.398304,15.33883752,.00050112,97.3827,220.3017,64.9675,295.2087,0,U,60513,999,9758,.17268825E-3,.5581E-4,0
FLOCK 4BE-9,2024-149AY,2026-05-18T15:52:26.368320,15.39841431,.00036547,97.3792,222.6683,70.8363,289.3278,0,U,60514,999,9777,.23797106E-3,.9363E-4,0
FLOCK 4BE-6,2024-149BA,2026-05-18T11:20:29.872608,15.38703789,.00043685,97.3791,221.8904,64.7522,295.4176,0,U,60516,999,9770,.2214599E-3,.8388E-4,0
FLOCK 4BE-14,2024-149BB,2026-05-18T11:34:37.913664,15.40004979,.00051433,97.3699,222.0130,60.0419,300.1337,0,U,60517,999,9775,.22530473E-3,.891E-4,0
FLOCK 4BE-1,2024-149BC,2026-05-18T04:53:43.721664,15.41524833,.0004717,97.3784,222.9043,61.3632,298.8088,0,U,60518,999,9775,.25343771E-3,.10553E-3,0
FLOCK 4BE-28,2024-149BD,2026-05-18T17:11:24.848448,15.43798654,.0004717,97.3749,224.0564,53.8561,306.3123,0,U,60519,999,9789,.26121528E-3,.11744E-3,0
IPERDRONE.0,2024-149BE,2026-05-18T12:00:24.507360,15.62436480,.0001113,97.3787,230.3479,7.6777,352.4498,0,U,60520,999,9827,.47265585E-3,.41947E-3,0
TRANSPORTER-11 OBJECT BF,2024-149BF,2026-05-18T12:39:00.878400,15.73683498,.00012674,97.3781,232.4473,277.3659,82.7461,0,U,60521,999,9840,.67185077E-3,.94857E-3,0
CONNECTA IOT-2,2024-149BG,2026-05-18T11:58:39.451008,15.23695800,.00080542,97.3843,217.1004,75.1159,285.0969,0,U,60522,999,9737,.12834386E-3,.3012E-4,0
PTD-R (TYVAK-0127),2024-149BH,2026-05-18T05:50:54.584448,15.89372070,.00019251,97.3774,236.3053,232.0531,128.0567,0,U,60523,999,9865,.45893783E-3,.131571E-2,.8351565E-5
CONNECTA IOT-4,2024-149BJ,2026-05-18T19:15:21.572064,15.40977019,.00057228,97.3800,222.8514,49.7013,310.4732,0,U,60524,999,9780,.31381756E-3,.12857E-3,0
ORESAT0.5,2024-149BK,2026-05-18T12:13:48.065376,15.43888753,.00056996,97.3724,224.0831,41.0405,319.1271,0,U,60525,999,9789,.26241621E-3,.11836E-3,0
DEIMOS,2024-149BL,2026-05-18T11:03:58.947552,15.43088887,.00058976,97.3785,224.1883,47.2068,312.9674,0,U,60526,999,9786,.2570198E-3,.11282E-3,0
CUAVA-2,2024-149BM,2026-05-18T04:13:19.293600,15.35371933,.00075183,97.3727,219.6611,51.4683,308.7234,0,U,60527,999,9756,.22209069E-3,.7556E-4,0
ERNST,2024-149BN,2026-05-18T15:31:27.752736,15.38364866,.00068592,97.3808,222.1643,54.1221,306.0660,0,U,60528,999,9773,.22957521E-3,.8607E-4,0
TORO,2024-149BQ,2026-05-18T03:33:20.862432,14.96300843,.00018126,97.6789,213.3783,97.2367,262.9060,0,U,60530,999,9546,.13986815E-3,.1524E-4,0
HYPSO-2,2024-149BR,2026-05-18T14:58:07.294656,14.98630291,.00027955,97.6826,215.3157,100.1792,259.9746,0,U,60531,999,9562,.17755855E-3,.2072E-4,0
LEMU NGE,2024-149BS,2026-05-18T15:59:25.548288,14.94815181,.00026074,97.6847,214.2245,106.2269,253.9239,0,U,60532,999,9554,.10282015E-3,.1063E-4,0
LEMUR-2-STELLA,2024-149BT,2026-05-18T22:51:28.404576,15.11104662,.00022142,97.6737,221.2961,115.7098,244.4360,0,U,60533,999,9608,.44240428E-3,.7347E-4,0
