NUSAT-49 (KLARA DAN VO*)
1 60500U 24149AJ  26138.18172097  .00005538  00000+0  19361-3 0  9999
2 60500  97.3767 219.6722 0003431  74.5508 285.6112 15.29951726 97548
FLOCK 4BE-11            
1 60501U 24149AK  26138.53505886  .00010226  00000+0  24250-3 0  9998
2 60501  97.3702 222.3676 0003933  45.9331 314.2239 15.41920319 97783
YAM-7                   
1 60504U 24149AN  26138.65717008  .00004621  00000+0  15504-3 0  9999
2 60504  97.3785 219.0363 0004514  58.9158 301.2526 15.31371442 97534
FLOCK 4BE-24            
1 60505U 24149AP  26138.71673213  .00012051  00000+0  28569-3 0  9997
2 60505  97.3717 222.7992 0004082  54.2893 305.8733 15.41882498 97825
LUR-1                   
1 60506U 24149AQ  26138.22218792  .00004550  00000+0  16086-3 0  9997
2 60506  97.3742 217.2766 0005377  65.0294 295.1504 15.29677113 97396
TANAGER-1               
1 60507U 24149AR  26138.81628078  .00007091  00000+0  15427-3 0  9996
2 60507  97.3135 232.9876 0005793  57.0104 303.1701 15.44609608 98506
EAGLEEYE                
1 60508U 24149AS  26138.49885661  .00050769  00000+0  50103-3 0  9994
2 60508  97.3735 230.3208 0001367  19.0480 341.0830 15.65778275 98281
FLOCK 4BE-29            
1 60509U 24149AT  26138.48998745  .00010564  00000+0  24089-3 0  9995
2 60509  97.3810 223.9398 0003541  68.7351 291.4275 15.43091273 97831
TRANSPORTER-11 OBJECT AU
1 60510U 24149AU  26138.48884881  .00008679  00000+0  22447-3 0  9992
2 60510  97.3731 221.9926 0004373  55.8343 304.3317 15.39326077 97741
FLOCK 4BE-2             
1 60511U 24149AV  26138.51120448  .00031554  00000+0  57419-3 0  9994
2 60511  97.3824 225.0378 0003119  64.7483 295.4092 15.49450256 97908
FLOCK 4BE-13            
1 60512U 24149AW  26138.48926585  .00008523  00000+0  20855-3 0  9991
2 60512  97.3722 222.6119 0004239  36.7784 323.3753 15.41025883 97797
FLOCK 4BE-27            
1 60513U 24149AX  26138.45219211  .00005581  00000+0  17269-3 0  9996
2 60513  97.3827 220.3017 0005011  64.9675 295.2087 15.33883752 97589
FLOCK 4BE-9             
1 60514U 24149AY  26138.66141630  .00009363  00000+0  23797-3 0  9994
2 60514  97.3792 222.6683 0003654  70.8363 289.3278 15.39841431 97777
FLOCK 4BE-6             
1 60516U 24149BA  26138.47256797  .00008388  00000+0  22146-3 0  9999
2 60516  97.3791 221.8904 0004368  64.7522 295.4176 15.38703789 97707
FLOCK 4BE-14            
1 60517U 24149BB  26138.48238326  .00008910  00000+0  22530-3 0  9997
2 60517  97.3699 222.0130 0005143  60.0419 300.1337 15.40004979 97751
FLOCK 4BE-1             
1 60518U 24149BC  26138.20397826  .00010553  00000+0  25344-3 0  9991
2 60518  97.3784 222.9043 0004717  61.3632 298.8088 15.41524833 97759
FLOCK 4BE-28            
1 60519U 24149BD  26138.71625982  .00011744  00000+0  26122-3 0  9993
2 60519  97.3749 224.0564 0004717  53.8561 306.3123 15.43798654 97895
IPERDRONE.0             
1 60520U 24149BE  26138.50028365  .00041947  00000+0  47266-3 0  9994
2 60520  97.3787 230.3479 0001113   7.6777 352.4498 15.62436480 98274
TRANSPORTER-11 OBJECT BF
1 60521U 24149BF  26138.52709350  .00094857  00000+0  67185-3 0  9997
2 60521  97.3781 232.4473 0001267 277.3659  82.7461 15.73683498 98404
CONNECTA IOT-2          
1 60522U 24149BG  26138.49906772  .00003012  00000+0  12834-3 0  9995
2 60522  97.3843 217.1004 0008054  75.1159 285.0969 15.23695800 97375
PTD-R (TYVAK-0127)      
1 60523U 24149BH  26138.24368732  .00131571  83516-5  45894-3 0  9990
2 60523  97.3774 236.3053 0001925 232.0531 128.0567 15.89372070 98659
CONNECTA IOT-4          
1 60524U 24149BJ  26138.80233301  .00012857  00000+0  31382-3 0  9999
2 60524  97.3800 222.8514 0005722  49.7013 310.4732 15.40977019 97807
ORESAT0.5               
1 60525U 24149BK  26138.50958409  .00011836  00000+0  26242-3 0  9995
2 60525  97.3724 224.0831 0005699  41.0405 319.1271 15.43888753 97894
DEIMOS                  
1 60526U 24149BL  26138.46109893  .00011282  00000+0  25702-3 0  9991
2 60526  97.3785 224.1883 0005897  47.2068 312.9674 15.43088887 97868
CUAVA-2                 
1 60527U 24149BM  26138.17591775  .00007556  00000+0  22209-3 0  9992
2 60527  97.3727 219.6611 0007518  51.4683 308.7234 15.35371933 97565
ERNST                   
1 60528U 24149BN  26138.64684899  .00008607  00000+0  22958-3 0  9994
2 60528  97.3808 222.1643 0006859  54.1221 306.0660 15.38364866 97738
TORO                    
1 60530U 24149BQ  26138.14815813  .00001524  00000+0  13987-3 0  9997
2 60530  97.6789 213.3783 0001812  97.2367 262.9060 14.96300843 95462
HYPSO-2                 
1 60531U 24149BR  26138.62369554  .00002072  00000+0  17756-3 0  9994
2 60531  97.6826 215.3157 0002795 100.1792 259.9746 14.98630291 95629
LEMU NGE                
1 60532U 24149BS  26138.66626792  .00001063  00000+0  10282-3 0  9995
2 60532  97.6847 214.2245 0002607 106.2269 253.9239 14.94815181 95548
LEMUR-2-STELLA          
1 60533U 24149BT  26138.95241209  .00007347  00000+0  44240-3 0  9996
2 60533  97.6737 221.2961 0002214 115.7098 244.4360 15.11104662 96084
